{
  "norad_id": 66436,
  "name": "STARLINK-35501",
  "history": [
    {
      "epoch": "2026-05-01T13:54:18.805248Z",
      "apogee_km": 483.5968514146625,
      "perigee_km": 482.4094624991003,
      "latitude_deg": 3.7176927549044256e-05,
      "longitude_deg": -92.74496466538264,
      "height_km": 482.92422348388186,
      "semi_major_axis_km": 6861.140156956882,
      "eccentricity": 8.653e-05,
      "inclination_deg": 42.9988,
      "raan_deg": 335.3431,
      "arg_perigee_deg": 255.8624,
      "mean_anomaly_deg": 104.2132,
      "mean_motion_rev_day": 15.27595342
    },
    {
      "epoch": "2026-05-03T14:33:10.196928Z",
      "apogee_km": 483.8156885850085,
      "perigee_km": 482.21978399334785,
      "latitude_deg": -3.896494915481083e-05,
      "longitude_deg": -115.90606879037729,
      "height_km": 483.1400236964456,
      "semi_major_axis_km": 6861.154736289178,
      "eccentricity": 0.0001163,
      "inclination_deg": 42.9993,
      "raan_deg": 323.8941,
      "arg_perigee_deg": 244.3024,
      "mean_anomaly_deg": 115.7707,
      "mean_motion_rev_day": 15.27590473
    },
    {
      "epoch": "2026-05-04T15:39:40.205088Z",
      "apogee_km": 483.8702430763324,
      "perigee_km": 482.1618159719801,
      "latitude_deg": -1.0347114178302444e-05,
      "longitude_deg": -139.4696384872642,
      "height_km": 482.97160886526257,
      "semi_major_axis_km": 6861.1530295241555,
      "eccentricity": 0.0001245,
      "inclination_deg": 43.0011,
      "raan_deg": 317.9867,
      "arg_perigee_deg": 257.9086,
      "mean_anomaly_deg": 102.1626,
      "mean_motion_rev_day": 15.27591043
    },
    {
      "epoch": "2026-05-05T13:37:51.585024Z",
      "apogee_km": 483.58035600916264,
      "perigee_km": 482.4016142213204,
      "latitude_deg": -7.89524457749485e-06,
      "longitude_deg": -115.08982447003106,
      "height_km": 483.2792991464618,
      "semi_major_axis_km": 6861.127985115241,
      "eccentricity": 8.59e-05,
      "inclination_deg": 43.0002,
      "raan_deg": 312.8162,
      "arg_perigee_deg": 209.5839,
      "mean_anomaly_deg": 150.4964,
      "mean_motion_rev_day": 15.27599407
    },
    {
      "epoch": "2026-05-06T19:26:50.188704Z",
      "apogee_km": 485.2382377581398,
      "perigee_km": 480.7894675452799,
      "latitude_deg": -3.2014803703950724e-05,
      "longitude_deg": 149.43065200123664,
      "height_km": 482.2017795976849,
      "semi_major_axis_km": 6861.150852651709,
      "eccentricity": 0.0003242,
      "inclination_deg": 43.0078,
      "raan_deg": 305.8054,
      "arg_perigee_deg": 285.4068,
      "mean_anomaly_deg": 74.6425,
      "mean_motion_rev_day": 15.2759177
    },
    {
      "epoch": "2026-05-07T12:42:33.725664Z",
      "apogee_km": 483.8647384991282,
      "perigee_km": 482.15768482406656,
      "latitude_deg": 4.3895235447690376e-05,
      "longitude_deg": -114.27480260596617,
      "height_km": 482.9944356171921,
      "semi_major_axis_km": 6861.148211661597,
      "eccentricity": 0.0001244,
      "inclination_deg": 43.0024,
      "raan_deg": 301.7402,
      "arg_perigee_deg": 256.0024,
      "mean_anomaly_deg": 104.069,
      "mean_motion_rev_day": 15.27592652
    },
    {
      "epoch": "2026-05-08T20:05:40.682688Z",
      "apogee_km": 484.5554743822631,
      "perigee_km": 481.36780795357663,
      "latitude_deg": -9.406744765198761e-06,
      "longitude_deg": 126.2775019034908,
      "height_km": 482.21732544321014,
      "semi_major_axis_km": 6861.09864116792,
      "eccentricity": 0.0002323,
      "inclination_deg": 43.0071,
      "raan_deg": 294.3605,
      "arg_perigee_deg": 289.1367,
      "mean_anomaly_deg": 70.9233,
      "mean_motion_rev_day": 15.27609207
    },
    {
      "epoch": "2026-05-09T18:03:52.426368Z",
      "apogee_km": 484.2505824747668,
      "perigee_km": 481.83407511516543,
      "latitude_deg": -9.339869696318527e-06,
      "longitude_deg": 150.65339511864437,
      "height_km": 482.7557073469891,
      "semi_major_axis_km": 6861.179328794966,
      "eccentricity": 0.0001761,
      "inclination_deg": 43.004,
      "raan_deg": 289.1876,
      "arg_perigee_deg": 273.0395,
      "mean_anomaly_deg": 87.0255,
      "mean_motion_rev_day": 15.2758226
    },
    {
      "epoch": "2026-05-10T17:36:13.370112Z",
      "apogee_km": 483.7944229714449,
      "perigee_km": 482.24928999696385,
      "latitude_deg": 5.948365118053647e-06,
      "longitude_deg": 151.05522601073926,
      "height_km": 482.6485811145875,
      "semi_major_axis_km": 6861.158856484204,
      "eccentricity": 0.0001126,
      "inclination_deg": 42.9963,
      "raan_deg": 283.6434,
      "arg_perigee_deg": 281.1452,
      "mean_anomaly_deg": 78.9273,
      "mean_motion_rev_day": 15.27589097
    }
  ]
}